[Satellite]
VERSION=1.1
NAME=GSAT0211 (PRN E02)
NICKNAME=GSAT0211 (PRN E02)
TLE1=1 41549U 16030A   22340.06848149 -.00000025  00000+0  00000+0 0  9990
TLE2=2 41549  55.6624 257.1706 0004689 339.4696  20.5381  1.70472968 40690
STATUS=0
